0343P         2029 11  4.6256  2.266022  0.584823  137.6081  257.0545    5.5976  20250607  14.0  4.0  343P/NEAT-LONEOS                                         MPEC 2024-PC5
0344P         2027 07 24.8358  2.797731  0.423741  140.6245  273.1014    3.4996  20250607  13.0  4.0  344P/Read                                                MPEC 2023-J29
0345P         2024 08 31.0096  3.139774  0.221345  196.7603  154.5068    2.7280  20250607  12.0  4.0  345P/LINEAR                                              MPEC 2024-TP3
0346P         2026 08  1.2529  2.216448  0.503910  336.0765  102.4579   22.2194  20250607  14.0  4.0  346P/Catalina                                            MPEC 2022-K19
0347P         2023 07 19.2503  2.206971  0.386957   98.0936  260.9915   11.7660  20250607  15.0  4.0  347P/PANSTARRS                                           MPEC 2024-RQ6
0348P         2027 09 19.1383  2.182497  0.307498  135.7760  312.9127   17.7427  20250607  14.0  4.0  348P/PANSTARRS                                           MPEC 2022-ED3
0349P         2024 05 26.9507  2.509649  0.298594  255.7502  331.7388    5.4892  20250607  14.0  4.0  349P/Lemmon                                              MPEC 2024-LE0
0350P         2026 03 17.4107  3.694352  0.094709  140.0563   65.2953    7.3655  20250607  14.0  4.0  350P/McNaught                                            MPC184420
0351P         2025 03 26.1607  3.131866  0.294732  352.5578  283.3862   12.7789  20250607  12.5  4.0  351P/Wiegert-PANSTARRS                                   MPC184420
0352P         2017 06 18.5716  2.555944  0.615969  309.3709   28.0508   21.0036  20250607  13.2  4.0  352P/Skiff                                               MPEC 2023-J29
0353P         2026 07  1.4691  2.211773  0.469711  230.4855  121.5095   28.4192  20250607  14.5  4.0  353P/McNaught                                            MPEC 2020-AA5
0354P         2023 10 14.2523  2.005325  0.124449  132.9363  320.0587    5.2507  20250607  15.5  4.0  354P/LINEAR                                              MPEC 2024-EF7
0355P         2024 04  1.2457  1.705961  0.507961  336.2591   51.4242   11.0460  20250607  15.5  2.0  355P/LINEAR-NEAT                                         MPEC 2023-CD7
0356P         2026 06 12.3230  2.674656  0.355868  226.2159  160.7914    9.6419  20250607  14.0  4.0  356P/WISE                                                MPEC 2022-F14
0357P         2027 10 29.6424  2.512565  0.436012    1.5056   44.5679    6.3126  20250607  15.5  4.0  357P/Hill                                                MPC114609
0358P         2023 11  9.5161  2.392365  0.239479  299.3321   85.6673   11.0668  20250607  18.0  4.0  358P/PANSTARRS                                           MPEC 2024-EF7
0359P         2027 08 24.4275  3.142462  0.323116  200.2814  149.7455   10.2618  20250607  13.5  4.0  359P/LONEOS                                              MPC110086
0360P         2024 10  3.8284  1.851750  0.499394  354.3254    2.1565   24.1054  20250607  19.5  6.0  360P/WISE                                                MPEC 2025-A40
0361P         2029 06 21.6251  2.764802  0.439527  219.1327  203.2288   13.8976  20250607  12.0  4.0  361P/Spacewatch                                          MPEC 2023-CD7
0363P         2024 11 13.2231  1.720986  0.518561  340.7629  146.7583    5.3938  20250607  17.5  4.0  363P/Lemmon                                              MPC184420
0364P         2023 05 12.7369  0.819619  0.717485  212.8214   45.8295   11.8874  20250607  17.0  2.0  364P/PANSTARRS                                           MPEC 2024-M41
0365P         2023 10  9.5116  1.320420  0.581653   67.4151   86.6558    9.8499  20250607  17.0  4.0  365P/PANSTARRS                                           MPC111775
0366P         2025 01 30.8881  2.279975  0.348650  152.9939   70.7230    8.8567  20250607  15.0  4.0  366P/Spacewatch                                          MPC114610
0367P         2025 01 11.5227  2.527941  0.280141  172.6817   58.6609    8.4591  20250607  17.5  2.0  367P/Catalina                                            MPC112395
0368P         2031 09 23.7580  2.072167  0.625636  118.9858  257.8564   15.4825  20250607  14.0  4.0  368P/NEAT                                                MPC114610
0369P         2027 12 18.9450  1.944545  0.555899   13.2411   47.2842   10.3194  20250607  15.0  4.0  369P/Hill                                                MPC114610
0370P         2018 06 12.7357  2.478543  0.615147  356.7862   55.0864   19.4170  20250607  13.0  4.0  370P/NEAT                                                MPEC 2021-F20
0371P         2027 04 25.9766  2.188217  0.476573  308.5665   67.2837   17.3837  20250607  16.0  4.0  371P/LINEAR-Skiff                                        MPC114610
0372P         2028 05 24.1762  3.830510  0.151214  325.9547   27.5495    9.5038  20250607  13.5  4.0  372P/McNaught                                            MPEC 2020-K19
0373P         2026 09  4.9523  2.301629  0.393816  221.1400  231.9304   13.7707  20250607  14.5  4.0  373P/Rinner                                              MPEC 2021-F20
0374P         2030 02 14.2866  2.666529  0.463617   51.5881    7.8651   10.7604  20250607  14.0  4.0  374P/Larson                                              MPC114610
0375P         2018 12 23.7806  1.884058  0.660253  119.4548  359.8306   17.3748  20250607  16.0  4.0  375P/Hill                                                MPEC 2021-F20
0376P         2019 09 13.0402  2.798454  0.513751  285.3446  312.8501    1.1662  20250607  12.5  4.0  376P/LONEOS                                              MPEC 2024-RQ6
0377P         2020 07  9.5016  5.011329  0.251454  354.8934  225.9300    9.0321  20250607   9.5  4.0  377P/Scotti                                              MPEC 2022-N37
0378P         2020 10  6.3545  3.373616  0.463391  193.3032   93.7910   19.1600  20250607  12.0  4.0  378P/McNaught                                            MPEC 2025-A40
0379P         2026 02 22.8127  2.263425  0.350190  184.6969   30.4474   12.4366  20250607  15.0  4.0  379P/Spacewatch                                          MPC115889
0380P         2028 08  8.3300  2.960208  0.333859   87.6880  127.7067    8.0341  20250607  12.5  4.0  380P/PANSTARRS                                           MPEC 2023-C45
0381P         2019 09 25.0716  2.282641  0.680530  173.8476  173.3215   28.3365  20250607  17.5  2.0  381P/LINEAR-Spacewatch                                   MPEC 2021-J28
0382P         2021 10 29.5070  4.327115  0.265256  162.4166  170.1174    8.2729  20250607   8.0  4.0  382P/Larson                                              MPC182891
0383P         2026 07  2.5861  1.425045  0.598474  133.7223  207.8549   12.3167  20250607  18.0  4.0  383P/Christensen                                         MPEC 2022-OB6
0384P         2024 09 19.1196  1.111873  0.616253   37.7015  354.1877    7.2841  20250607  19.5  4.0  384P/Kowalski                                            MPC182891
0385P         2028 08  4.8709  2.565567  0.401845   44.4646  357.0334   16.8222  20250607  13.0  4.0  385P/Hill                                                MPEC 2021-F20
0386P         2028 10 13.7436  2.358494  0.417515  353.1051  134.9159   15.2470  20250607  14.5  4.0  386P/PANSTARRS                                           MPEC 2021-L04
0387P         2030 03 13.1125  1.261845  0.736977  162.8531  259.2388    8.9379  20250607  15.0  4.0  387P/Boattini                                            MPEC 2021-J28
0388P         2019 07 26.8058  1.994877  0.619357   42.3719   37.0081   23.8776  20250607  13.0  4.0  388P/Gibbs                                               MPEC 2021-S45
0389P         2019 12 31.3658  1.656768  0.705725  249.3209  218.8495  160.0792  20250607  16.0  4.0  389P/Siding Spring                                       MPEC 2022-OB6
0390P         2020 03 22.3468  1.706662  0.706652  232.5597  152.1999   18.5218  20250607  12.0  4.0  390P/Gibbs                                               MPEC 2024-EF7
0391P         2028 05 11.1802  4.136292  0.118368  186.9236  124.7736   21.2568  20250607   8.0  4.0  391P/Kowalski                                            MPEC 2021-F20
0392P         2020 04  2.9856  1.941400  0.683938   71.9684   24.8005    4.9284  20250607  14.5  4.0  392P/LINEAR                                              MPEC 2021-J28
0393P         2030 05  7.1159  4.228917  0.119079  329.2023   36.4019   16.7833  20250607  11.0  4.0  393P/Spacewatch-Hill                                     MPC182892
0394P         2028 11 30.1102  2.732685  0.368375   54.4531   98.1022    8.5280  20250607  16.0  2.4  394P/PANSTARRS                                           MPEC 2020-KB7
0395P         2022 02 20.4995  4.240018  0.411371  100.7037  220.9653    3.5695  20250607  10.0  4.0  395P/Catalina-NEAT                                       MPC182892
0396P         2019 08 29.2252  3.963556  0.417014    8.3089  136.6070    5.4426  20250607  12.0  4.0  396P                                                     MPEC 2020-KB7
0397P         2027 12 21.1783  2.281817  0.404576   14.5880    8.2082   10.9198  20250607  12.0  4.0  397P/Lemmon                                              MPEC 2022-OB6
0398P         2026 07  7.9247  1.300485  0.583766  127.5514  320.1346   11.0276  20250607  15.5  4.0  398P/Boattini                                            MPEC 2021-L04
0399P         2028 10 12.5248  2.096827  0.447279  214.4505  207.1161   13.3161  20250607  14.0  4.0  399P/PANSTARRS                                           MPEC 2023-XP6
0400P         2027 11  3.0223  2.103038  0.409589  238.9537  176.3469   10.9251  20250607  15.5  2.8  400P/PANSTARRS                                           MPEC 2024-TD8
0401P         2019 12  3.1834  2.435737  0.578346  309.3502  359.9230   12.8003  20250607  12.5  4.0  401P/McNaught                                            MPEC 2022-K19
